SAC-D
1 37673U 11024A   13341.44057894 +.00000000 +00000+0 +14193-4 6  9400
2 37673  98.0124 346.4002 0001809  84.0238 148.6034 14.72289324133559
